{"type": "FeatureCollection", "features": [ {"type": "Feature", "properties": {"norad_id": 31476, "name": "FENGYUN 1C DEB", "group": "fengyun-1c-debris", "lat": -25.036059394228342, "lon": 77.97422589688202, "alt_km": 859.1983425578819, "timestamp": "2025-12-26T03:50:12.375845+00:00", "meta": {"OBJECT_NAME": "FENGYUN 1C DEB", "OBJECT_ID": "1999-025BVQ", "EPOCH": "2025-12-25T04:19:04.194624", "MEAN_MOTION": 14.22182287, "ECCENTRICITY": 0.00528824, "INCLINATION": 98.8969, "RA_OF_ASC_NODE": 72.7901, "ARG_OF_PERICENTER": 137.4225, "MEAN_ANOMALY": 223.107, "EPHEMERIS_TYPE": 0, "CLASSIFICATION_TYPE": "U", "NORAD_CAT_ID": 31476, "ELEMENT_SET_NO": 999, "REV_AT_EPOCH": 95876, "BSTAR": 0.001573372, "MEAN_MOTION_DOT": 3.495e-05, "MEAN_MOTION_DDOT": 0}, "tle": {"line1": "1 31476U 99025BVQ 25359.17990966  .00003495  00000+0  15734-2 0  9999", "line2": "2 31476  98.8969  72.7901 0052882 137.4225 223.1070 14.22182287958764"}}, "geometry": {"type": "Point", "coordinates": [77.97422589688202, -25.036059394228342]}}, {"type": "Feature", "properties": {"norad_id": 31477, "name": "FENGYUN 1C DEB", "group": "fengyun-1c-debris", "lat": -50.90576870556201, "lon": 158.44249579922868, "alt_km": 929.5070132917945, "timestamp": "2025-12-26T03:50:12.375855+00:00", "meta": {"OBJECT_NAME": "FENGYUN 1C DEB", "OBJECT_ID": "1999-025BVR", "EPOCH": "2025-12-23T16:32:04.337376", "MEAN_MOTION": 14.02935294, "ECCENTRICITY": 0.01097133, "INCLINATION": 98.8872, "RA_OF_ASC_NODE": 347.133, "ARG_OF_PERICENTER": 358.4238, "MEAN_ANOMALY": 1.6568, "EPHEMERIS_TYPE": 0, "CLASSIFICATION_TYPE": "U", "NORAD_CAT_ID": 31477, "ELEMENT_SET_NO": 999, "REV_AT_EPOCH": 95557, "BSTAR": 0.00038195011, "MEAN_MOTION_DOT": 5.81e-06, "MEAN_MOTION_DDOT": 0}, "tle": {"line1": "1 31477U 99025BVR 25357.68893909  .00000581  00000+0  38195-3 0  9993", "line2": "2 31477  98.8872 347.1330 0109713 358.4238   1.6568 14.02935294955577"}}, "geometry": {"type": "Point", "coordinates": [158.44249579922868, -50.90576870556201]}}, {"type": "Feature", "properties": {"norad_id": 31480, "name": "FENGYUN 1C DEB", "group": "fengyun-1c-debris", "lat": -5.863144984246958, "lon": -149.1645909425167, "alt_km": 1179.3041273737917, "timestamp": "2025-12-26T03:50:12.375865+00:00", "meta": {"OBJECT_NAME": "FENGYUN 1C DEB", "OBJECT_ID": "1999-025BVU", "EPOCH": "2025-12-24T20:46:14.124000", "MEAN_MOTION": 13.90037757, "ECCENTRICITY": 0.03436956, "INCLINATION": 98.3386, "RA_OF_ASC_NODE": 208.809, "ARG_OF_PERICENTER": 187.5724, "MEAN_ANOMALY": 172.017, "EPHEMERIS_TYPE": 0, "CLASSIFICATION_TYPE": "U", "NORAD_CAT_ID": 31480, "ELEMENT_SET_NO": 999, "REV_AT_EPOCH": 93564, "BSTAR": 0.002597268, "MEAN_MOTION_DOT": 5.128e-05, "MEAN_MOTION_DDOT": 0}, "tle": {"line1": "1 31480U 99025BVU 25358.86544125  .00005128  00000+0  25973-2 0  9992", "line2": "2 31480  98.3386 208.8090 0343695 187.5724 172.0170 13.90037757935643"}}, "geometry": {"type": "Point", "coordinates": [-149.1645909425167, -5.863144984246958]}}, {"type": "Feature", "properties": {"norad_id": 31482, "name": "FENGYUN 1C DEB", "group": "fengyun-1c-debris", "lat": 73.20975091244263, "lon": -147.103194255344, "alt_km": 812.072939184628, "timestamp": "2025-12-26T03:50:12.375875+00:00", "meta": {"OBJECT_NAME": "FENGYUN 1C DEB", "OBJECT_ID": "1999-025BVW", "EPOCH": "2025-12-24T06:15:25.833024", "MEAN_MOTION": 14.3570192, "ECCENTRICITY": 0.00887436, "INCLINATION": 98.3828, "RA_OF_ASC_NODE": 1.7956, "ARG_OF_PERICENTER": 247.5543, "MEAN_ANOMALY": 127.5422, "EPHEMERIS_TYPE": 0, "CLASSIFICATION_TYPE": "U", "NORAD_CAT_ID": 31482, "ELEMENT_SET_NO": 999, "REV_AT_EPOCH": 97295, "BSTAR": 0.0006698744, "MEAN_MOTION_DOT": 1.979e-05, "MEAN_MOTION_DDOT": 0}, "tle": {"line1": "1 31482U 99025BVW 25358.26071566  .00001979  00000+0  66987-3 0  9993", "line2": "2 31482  98.3828   1.7956 0088743 247.5543 127.5422 14.35701920972953"}}, "geometry": {"type": "Point", "coordinates": [-147.103194255344, 73.20975091244263]}}, {"type": "Feature", "properties": {"norad_id": 31483, "name": "FENGYUN 1C DEB", "group": "fengyun-1c-debris", "lat": 76.82359426705287, "lon": -152.7837121902984, "alt_km": 834.7113338325826, "timestamp": "2025-12-26T03:50:12.375885+00:00", "meta": {"OBJECT_NAME": "FENGYUN 1C DEB", "OBJECT_ID": "1999-025BVX", "EPOCH": "2025-12-25T16:20:58.735104", "MEAN_MOTION": 14.16165365, "ECCENTRICITY": 0.0117802, "INCLINATION": 102.5049, "RA_OF_ASC_NODE": 315.1162, "ARG_OF_PERICENTER": 188.5674, "MEAN_ANOMALY": 347.9676, "EPHEMERIS_TYPE": 0, "CLASSIFICATION_TYPE": "U", "NORAD_CAT_ID": 31483, "ELEMENT_SET_NO": 999, "REV_AT_EPOCH": 94889, "BSTAR": 0.0024306, "MEAN_MOTION_DOT": 5.074e-05, "MEAN_MOTION_DDOT": 0}, "tle": {"line1": "1 31483U 99025BVX 25359.68123536  .00005074  00000+0  24306-2 0  9994", "line2": "2 31483 102.5049 315.1162 0117802 188.5674 347.9676 14.16165365948897"}}, "geometry": {"type": "Point", "coordinates": [-152.7837121902984, 76.82359426705287]}}, {"type": "Feature", "properties": {"norad_id": 31484, "name": "FENGYUN 1C DEB", "group": "fengyun-1c-debris", "lat": -16.94814409243747, "lon": -54.45535958610541, "alt_km": 767.5072431893341, "timestamp": "2025-12-26T03:50:12.375896+00:00", "meta": {"OBJECT_NAME": "FENGYUN 1C DEB", "OBJECT_ID": "1999-025BVY", "EPOCH": "2025-12-23T01:26:10.111200", "MEAN_MOTION": 14.50731885, "ECCENTRICITY": 0.00830007, "INCLINATION": 101.8064, "RA_OF_ASC_NODE": 297.5559, "ARG_OF_PERICENTER": 124.1407, "MEAN_ANOMALY": 236.7682, "EPHEMERIS_TYPE": 0, "CLASSIFICATION_TYPE": "U", "NORAD_CAT_ID": 31484, "ELEMENT_SET_NO": 999, "REV_AT_EPOCH": 64387, "BSTAR": 0.0046453294, "MEAN_MOTION_DOT": 0.00019079, "MEAN_MOTION_DDOT": 0}, "tle": {"line1": "1 31484U 99025BVY 25357.05983925  .00019079  00000+0  46453-2 0  9997", "line2": "2 31484 101.8064 297.5559 0083000 124.1407 236.7682 14.50731885643878"}}, "geometry": {"type": "Point", "coordinates": [-54.45535958610541, -16.94814409243747]}}, {"type": "Feature", "properties": {"norad_id": 31485, "name": "FENGYUN 1C DEB", "group": "fengyun-1c-debris", "lat": 40.75429975394569, "lon": 22.04704616835062, "alt_km": 1397.1975536852324, "timestamp": "2025-12-26T03:50:12.375905+00:00", "meta": {"OBJECT_NAME": "FENGYUN 1C DEB", "OBJECT_ID": "1999-025BVZ", "EPOCH": "2025-12-24T09:54:22.685184", "MEAN_MOTION": 13.40097736, "ECCENTRICITY": 0.04462437, "INCLINATION": 102.7177, "RA_OF_ASC_NODE": 188.6326, "ARG_OF_PERICENTER": 293.7591, "MEAN_ANOMALY": 61.7335, "EPHEMERIS_TYPE": 0, "CLASSIFICATION_TYPE": "U", "NORAD_CAT_ID": 31485, "ELEMENT_SET_NO": 999, "REV_AT_EPOCH": 90601, "BSTAR": 0.0027619482, "MEAN_MOTION_DOT": 2.633e-05, "MEAN_MOTION_DDOT": 0}, "tle": {"line1": "1 31485U 99025BVZ 25358.41276256  .00002633  00000+0  27619-2 0  9992", "line2": "2 31485 102.7177 188.6326 0446243 293.7591  61.7335 13.40097736906012"}}, "geometry": {"type": "Point", "coordinates": [22.04704616835062, 40.75429975394569]}}, {"type": "Feature", "properties": {"norad_id": 31487, "name": "FENGYUN 1C DEB", "group": "fengyun-1c-debris", "lat": 18.154597235162385, "lon": -2.570251250089095, "alt_km": 935.0796377621227, "timestamp": "2025-12-26T03:50:12.375916+00:00", "meta": {"OBJECT_NAME": "FENGYUN 1C DEB", "OBJECT_ID": "1999-025BWB", "EPOCH": "2025-12-24T18:29:42.583200", "MEAN_MOTION": 13.97784189, "ECCENTRICITY": 0.01193328, "INCLINATION": 102.4136, "RA_OF_ASC_NODE": 171.4168, "ARG_OF_PERICENTER": 277.9548, "MEAN_ANOMALY": 97.273, "EPHEMERIS_TYPE": 0, "CLASSIFICATION_TYPE": "U", "NORAD_CAT_ID": 31487, "ELEMENT_SET_NO": 999, "REV_AT_EPOCH": 94580, "BSTAR": 0.0017084916, "MEAN_MOTION_DOT": 2.495e-05, "MEAN_MOTION_DDOT": 0}, "tle": {"line1": "1 31487U 99025BWB 25358.77063175  .00002495  00000+0  17085-2 0  9999", "line2": "2 31487 102.4136 171.4168 0119332 277.9548  97.2730 13.97784189945802"}}, "geometry": {"type": "Point", "coordinates": [-2.570251250089095, 18.154597235162385]}}, {"type": "Feature", "properties": {"norad_id": 31491, "name": "FENGYUN 1C DEB", "group": "fengyun-1c-debris", "lat": -41.09403463368126, "lon": 81.16497013362645, "alt_km": 804.4409848319638, "timestamp": "2025-12-26T03:50:12.375926+00:00", "meta": {"OBJECT_NAME": "FENGYUN 1C DEB", "OBJECT_ID": "1999-025BWE", "EPOCH": "2025-12-18T05:01:58.636416", "MEAN_MOTION": 14.1729953, "ECCENTRICITY": 0.00511133, "INCLINATION": 99.3072, "RA_OF_ASC_NODE": 261.0688, "ARG_OF_PERICENTER": 253.212, "MEAN_ANOMALY": 106.3442, "EPHEMERIS_TYPE": 0, "CLASSIFICATION_TYPE": "U", "NORAD_CAT_ID": 31491, "ELEMENT_SET_NO": 999, "REV_AT_EPOCH": 63805, "BSTAR": 0.0014383052, "MEAN_MOTION_DOT": 2.896e-05, "MEAN_MOTION_DDOT": 0}, "tle": {"line1": "1 31491U 99025BWE 25352.20970644  .00002896  00000+0  14383-2 0  9997", "line2": "2 31491  99.3072 261.0688 0051113 253.2120 106.3442 14.17299530638050"}}, "geometry": {"type": "Point", "coordinates": [81.16497013362645, -41.09403463368126]}}, {"type": "Feature", "properties": {"norad_id": 31492, "name": "FENGYUN 1C DEB", "group": "fengyun-1c-debris", "lat": -3.7400685729632834, "lon": -13.244362679254413, "alt_km": 696.7688335348848, "timestamp": "2025-12-26T03:50:12.375936+00:00", "meta": {"OBJECT_NAME": "FENGYUN 1C DEB", "OBJECT_ID": "1999-025BWF", "EPOCH": "2025-12-22T22:16:59.719872", "MEAN_MOTION": 14.71117312, "ECCENTRICITY": 0.00645708, "INCLINATION": 98.856, "RA_OF_ASC_NODE": 163.8283, "ARG_OF_PERICENTER": 336.971, "MEAN_ANOMALY": 22.8602, "EPHEMERIS_TYPE": 0, "CLASSIFICATION_TYPE": "U", "NORAD_CAT_ID": 31492, "ELEMENT_SET_NO": 999, "REV_AT_EPOCH": 96656, "BSTAR": 0.0033267446, "MEAN_MOTION_DOT": 0.00021138, "MEAN_MOTION_DDOT": 0}, "tle": {"line1": "1 31492U 99025BWF 25356.92846898  .00021138  00000+0  33267-2 0  9996", "line2": "2 31492  98.8560 163.8283 0064570 336.9710  22.8602 14.71117312966569"}}, "geometry": {"type": "Point", "coordinates": [-13.244362679254413, -3.7400685729632834]}}]}